TWILIGHT AD             
1 67390U 26004AD  26022.49859189  .00004883  00000+0  25054-3 0  9993
2 67390  97.4563  23.6954 0005282 111.9642 248.2154 15.16980026  1657
TWILIGHT AE             
1 67391U 26004AE  26022.49715107  .00003331  00000+0  17112-3 0  9998
2 67391  97.4512  23.6895 0006728 108.7938 251.4026 15.17164296  1652
TWILIGHT AF             
1 67392U 26004AF  26021.96873364  .00006736  00000+0  34049-3 0  9990
2 67392  97.4490  23.1683 0007277 112.9955 247.2047 15.17358536  1573
TWILIGHT AG             
1 67393U 26004AG  26022.03393935  .00006329  00000+0  31920-3 0  9994
2 67393  97.4517  23.2392 0007321 117.4596 242.7383 15.17461033  1584
TWILIGHT AH             
1 67394U 26004AH  26022.49041838  .00004490  00000+0  22312-3 0  9999
2 67394  97.4457  23.6900 0010559 118.8288 241.4007 15.18117508  1650
TWILIGHT AJ             
1 67395U 26004AJ  26022.50921692  .00001681  00000+0  19019-3 0  9996
2 67395  97.8000  23.4960 0003889 241.5738 118.5087 14.87755194  1617
TWILIGHT AK             
1 67396U 26004AK  26022.42710955  .00007602  00000+0  37922-3 0  9998
2 67396  97.4553  23.6358 0008346 125.7469 234.4542 15.17772277  1649
TWILIGHT AL             
1 67397U 26004AL  26022.49477267  .00009119  00000+0  45723-3 0  9995
2 67397  97.4515  23.6935 0007568 117.9736 242.2264 15.17541328  1654
TWILIGHT AM             
1 67398U 26004AM  26022.49334416  .00005273  00000+0  26451-3 0  9998
2 67398  97.4498  23.6918 0008610 118.3573 241.8529 15.17722223  1653
TWILIGHT AN             
1 67399U 26004AN  26022.42598648  .00005382  00000+0  26833-3 0  9996
2 67399  97.4541  23.6356 0009061 126.0988 234.1086 15.17926789  1641
TWILIGHT AP             
1 67400U 26004AP  26022.48962927  .00005047  00000+0  24953-3 0  9999
2 67400  97.4540  23.7031 0010524 127.2100 233.0096 15.18233880  1653
TWILIGHT AQ             
1 67401U 26004AQ  26022.48888646  .00005476  00000+0  26956-3 0  9996
2 67401  97.4483  23.6959 0011307 122.2263 238.0069 15.18338507  1650
