CCSDS_OMM_VERS = 2.0
CREATION_DATE  = 
ORIGINATOR     = 

OBJECT_NAME    = TWILIGHT AD
OBJECT_ID      = 2026-004AD
CENTER_NAME    = EARTH
REF_FRAME      = TEME
TIME_SYSTEM    = UTC
MEAN_ELEMENT_THEORY = SGP/SGP4

EPOCH          = 2026-01-22T11:57:58.339296
MEAN_MOTION    = 15.16980026
ECCENTRICITY   = .0005282
INCLINATION    = 97.4563
RA_OF_ASC_NODE = 23.6954
ARG_OF_PERICENTER = 111.9642
MEAN_ANOMALY   = 248.2154

EPHEMERIS_TYPE = 0
CLASSIFICATION_TYPE = U
NORAD_CAT_ID   = 67390
ELEMENT_SET_NO = 999
REV_AT_EPOCH   = 165
BSTAR          = .25054E-3
MEAN_MOTION_DOT = .4883E-4
MEAN_MOTION_DDOT = 0

CCSDS_OMM_VERS = 2.0
CREATION_DATE  = 
ORIGINATOR     = 

OBJECT_NAME    = TWILIGHT AE
OBJECT_ID      = 2026-004AE
CENTER_NAME    = EARTH
REF_FRAME      = TEME
TIME_SYSTEM    = UTC
MEAN_ELEMENT_THEORY = SGP/SGP4

EPOCH          = 2026-01-22T11:55:53.852448
MEAN_MOTION    = 15.17164296
ECCENTRICITY   = .0006728
INCLINATION    = 97.4512
RA_OF_ASC_NODE = 23.6895
ARG_OF_PERICENTER = 108.7938
MEAN_ANOMALY   = 251.4026

EPHEMERIS_TYPE = 0
CLASSIFICATION_TYPE = U
NORAD_CAT_ID   = 67391
ELEMENT_SET_NO = 999
REV_AT_EPOCH   = 165
BSTAR          = .17112E-3
MEAN_MOTION_DOT = .3331E-4
MEAN_MOTION_DDOT = 0

CCSDS_OMM_VERS = 2.0
CREATION_DATE  = 
ORIGINATOR     = 

OBJECT_NAME    = TWILIGHT AF
OBJECT_ID      = 2026-004AF
CENTER_NAME    = EARTH
REF_FRAME      = TEME
TIME_SYSTEM    = UTC
MEAN_ELEMENT_THEORY = SGP/SGP4

EPOCH          = 2026-01-21T23:14:58.586496
MEAN_MOTION    = 15.17358536
ECCENTRICITY   = .00072777
INCLINATION    = 97.4490
RA_OF_ASC_NODE = 23.1683
ARG_OF_PERICENTER = 112.9955
MEAN_ANOMALY   = 247.2047

EPHEMERIS_TYPE = 0
CLASSIFICATION_TYPE = U
NORAD_CAT_ID   = 67392
ELEMENT_SET_NO = 999
REV_AT_EPOCH   = 157
BSTAR          = .34049347E-3
MEAN_MOTION_DOT = .6736E-4
MEAN_MOTION_DDOT = 0

CCSDS_OMM_VERS = 2.0
CREATION_DATE  = 
ORIGINATOR     = 

OBJECT_NAME    = TWILIGHT AG
OBJECT_ID      = 2026-004AG
CENTER_NAME    = EARTH
REF_FRAME      = TEME
TIME_SYSTEM    = UTC
MEAN_ELEMENT_THEORY = SGP/SGP4

EPOCH          = 2026-01-22T00:48:52.359840
MEAN_MOTION    = 15.17461033
ECCENTRICITY   = .00073216
INCLINATION    = 97.4517
RA_OF_ASC_NODE = 23.2392
ARG_OF_PERICENTER = 117.4596
MEAN_ANOMALY   = 242.7383

EPHEMERIS_TYPE = 0
CLASSIFICATION_TYPE = U
NORAD_CAT_ID   = 67393
ELEMENT_SET_NO = 999
REV_AT_EPOCH   = 158
BSTAR          = .31919959E-3
MEAN_MOTION_DOT = .6329E-4
MEAN_MOTION_DDOT = 0

CCSDS_OMM_VERS = 2.0
CREATION_DATE  = 
ORIGINATOR     = 

OBJECT_NAME    = TWILIGHT AH
OBJECT_ID      = 2026-004AH
CENTER_NAME    = EARTH
REF_FRAME      = TEME
TIME_SYSTEM    = UTC
MEAN_ELEMENT_THEORY = SGP/SGP4

EPOCH          = 2026-01-22T11:46:12.148032
MEAN_MOTION    = 15.18117508
ECCENTRICITY   = .0010559
INCLINATION    = 97.4457
RA_OF_ASC_NODE = 23.6900
ARG_OF_PERICENTER = 118.8288
MEAN_ANOMALY   = 241.4007

EPHEMERIS_TYPE = 0
CLASSIFICATION_TYPE = U
NORAD_CAT_ID   = 67394
ELEMENT_SET_NO = 999
REV_AT_EPOCH   = 165
BSTAR          = .22312E-3
MEAN_MOTION_DOT = .449E-4
MEAN_MOTION_DDOT = 0

CCSDS_OMM_VERS = 2.0
CREATION_DATE  = 
ORIGINATOR     = 

OBJECT_NAME    = TWILIGHT AJ
OBJECT_ID      = 2026-004AJ
CENTER_NAME    = EARTH
REF_FRAME      = TEME
TIME_SYSTEM    = UTC
MEAN_ELEMENT_THEORY = SGP/SGP4

EPOCH          = 2026-01-22T12:13:16.341888
MEAN_MOTION    = 14.87755194
ECCENTRICITY   = .0003889
INCLINATION    = 97.8000
RA_OF_ASC_NODE = 23.4960
ARG_OF_PERICENTER = 241.5738
MEAN_ANOMALY   = 118.5087

EPHEMERIS_TYPE = 0
CLASSIFICATION_TYPE = U
NORAD_CAT_ID   = 67395
ELEMENT_SET_NO = 999
REV_AT_EPOCH   = 161
BSTAR          = .19019E-3
MEAN_MOTION_DOT = .1681E-4
MEAN_MOTION_DDOT = 0

CCSDS_OMM_VERS = 2.0
CREATION_DATE  = 
ORIGINATOR     = 

OBJECT_NAME    = TWILIGHT AK
OBJECT_ID      = 2026-004AK
CENTER_NAME    = EARTH
REF_FRAME      = TEME
TIME_SYSTEM    = UTC
MEAN_ELEMENT_THEORY = SGP/SGP4

EPOCH          = 2026-01-22T10:15:02.265120
MEAN_MOTION    = 15.17772277
ECCENTRICITY   = .0008346
INCLINATION    = 97.4553
RA_OF_ASC_NODE = 23.6358
ARG_OF_PERICENTER = 125.7469
MEAN_ANOMALY   = 234.4542

EPHEMERIS_TYPE = 0
CLASSIFICATION_TYPE = U
NORAD_CAT_ID   = 67396
ELEMENT_SET_NO = 999
REV_AT_EPOCH   = 164
BSTAR          = .37922E-3
MEAN_MOTION_DOT = .7602E-4
MEAN_MOTION_DDOT = 0

CCSDS_OMM_VERS = 2.0
CREATION_DATE  = 
ORIGINATOR     = 

OBJECT_NAME    = TWILIGHT AL
OBJECT_ID      = 2026-004AL
CENTER_NAME    = EARTH
REF_FRAME      = TEME
TIME_SYSTEM    = UTC
MEAN_ELEMENT_THEORY = SGP/SGP4

EPOCH          = 2026-01-22T11:52:28.358688
MEAN_MOTION    = 15.17541328
ECCENTRICITY   = .0007568
INCLINATION    = 97.4515
RA_OF_ASC_NODE = 23.6935
ARG_OF_PERICENTER = 117.9736
MEAN_ANOMALY   = 242.2264

EPHEMERIS_TYPE = 0
CLASSIFICATION_TYPE = U
NORAD_CAT_ID   = 67397
ELEMENT_SET_NO = 999
REV_AT_EPOCH   = 165
BSTAR          = .45723E-3
MEAN_MOTION_DOT = .9119E-4
MEAN_MOTION_DDOT = 0

CCSDS_OMM_VERS = 2.0
CREATION_DATE  = 
ORIGINATOR     = 

OBJECT_NAME    = TWILIGHT AM
OBJECT_ID      = 2026-004AM
CENTER_NAME    = EARTH
REF_FRAME      = TEME
TIME_SYSTEM    = UTC
MEAN_ELEMENT_THEORY = SGP/SGP4

EPOCH          = 2026-01-22T11:50:24.935424
MEAN_MOTION    = 15.17722223
ECCENTRICITY   = .000861
INCLINATION    = 97.4498
RA_OF_ASC_NODE = 23.6918
ARG_OF_PERICENTER = 118.3573
MEAN_ANOMALY   = 241.8529

EPHEMERIS_TYPE = 0
CLASSIFICATION_TYPE = U
NORAD_CAT_ID   = 67398
ELEMENT_SET_NO = 999
REV_AT_EPOCH   = 165
BSTAR          = .26451E-3
MEAN_MOTION_DOT = .5273E-4
MEAN_MOTION_DDOT = 0

CCSDS_OMM_VERS = 2.0
CREATION_DATE  = 
ORIGINATOR     = 

OBJECT_NAME    = TWILIGHT AN
OBJECT_ID      = 2026-004AN
CENTER_NAME    = EARTH
REF_FRAME      = TEME
TIME_SYSTEM    = UTC
MEAN_ELEMENT_THEORY = SGP/SGP4

EPOCH          = 2026-01-22T10:13:25.231872
MEAN_MOTION    = 15.17926789
ECCENTRICITY   = .0009061
INCLINATION    = 97.4541
RA_OF_ASC_NODE = 23.6356
ARG_OF_PERICENTER = 126.0988
MEAN_ANOMALY   = 234.1086

EPHEMERIS_TYPE = 0
CLASSIFICATION_TYPE = U
NORAD_CAT_ID   = 67399
ELEMENT_SET_NO = 999
REV_AT_EPOCH   = 164
BSTAR          = .26833E-3
MEAN_MOTION_DOT = .5382E-4
MEAN_MOTION_DDOT = 0

CCSDS_OMM_VERS = 2.0
CREATION_DATE  = 
ORIGINATOR     = 

OBJECT_NAME    = TWILIGHT AP
OBJECT_ID      = 2026-004AP
CENTER_NAME    = EARTH
REF_FRAME      = TEME
TIME_SYSTEM    = UTC
MEAN_ELEMENT_THEORY = SGP/SGP4

EPOCH          = 2026-01-22T11:45:03.968928
MEAN_MOTION    = 15.18233880
ECCENTRICITY   = .0010524
INCLINATION    = 97.4540
RA_OF_ASC_NODE = 23.7031
ARG_OF_PERICENTER = 127.2100
MEAN_ANOMALY   = 233.0096

EPHEMERIS_TYPE = 0
CLASSIFICATION_TYPE = U
NORAD_CAT_ID   = 67400
ELEMENT_SET_NO = 999
REV_AT_EPOCH   = 165
BSTAR          = .24953E-3
MEAN_MOTION_DOT = .5047E-4
MEAN_MOTION_DDOT = 0

CCSDS_OMM_VERS = 2.0
CREATION_DATE  = 
ORIGINATOR     = 

OBJECT_NAME    = TWILIGHT AQ
OBJECT_ID      = 2026-004AQ
CENTER_NAME    = EARTH
REF_FRAME      = TEME
TIME_SYSTEM    = UTC
MEAN_ELEMENT_THEORY = SGP/SGP4

EPOCH          = 2026-01-22T11:43:59.790144
MEAN_MOTION    = 15.18338507
ECCENTRICITY   = .0011307
INCLINATION    = 97.4483
RA_OF_ASC_NODE = 23.6959
ARG_OF_PERICENTER = 122.2263
MEAN_ANOMALY   = 238.0069

EPHEMERIS_TYPE = 0
CLASSIFICATION_TYPE = U
NORAD_CAT_ID   = 67401
ELEMENT_SET_NO = 999
REV_AT_EPOCH   = 165
BSTAR          = .26956E-3
MEAN_MOTION_DOT = .5476E-4
MEAN_MOTION_DDOT = 0

